NORAD_CAT_ID,OBJECT_NAME,OBJECT_TYPE,EPOCH,MEAN_MOTION,ECCENTRICITY,INCLINATION,RA_OF_ASC_NODE,ARG_OF_PERICENTER,MEAN_ANOMALY,BSTAR,MEAN_MOTION_DOT,MEAN_MOTION_DDOT,TLE_LINE0,TLE_LINE1,TLE_LINE2,SEMIMAJOR_AXIS,PERIOD,APOGEE,PERIGEE,DECAYED
52633.0,STARLINK-3994,PAYLOAD,2024-04-17 11:34:09,15.08849404,0.0001801,53.2167,132.0711,93.2175,266.9023,0.00017002,2.419e-05,0.0,0 STARLINK-3994,1 52633U 22052AM  24108.48204989  .00002419  00000-0  17002-3 0  9998,2 52633  53.2167 132.0711 0001801  93.2175 266.9023 15.08849404106656,6917.852,95.437,540.963,538.471,0.0
52633.0,STARLINK-3994,PAYLOAD,2024-04-18 11:24:57,15.08825568,0.0001687,53.2167,127.6113,111.0784,249.0388,-0.00014639,-2.616e-05,0.0,0 STARLINK-3994,1 52633U 22052AM  24109.47566681 -.00002616  00000-0 -14639-3 0  9992,2 52633  53.2167 127.6113 0001687 111.0784 249.0388 15.08825568107178,6917.925,95.438,540.957,538.622,0.0
52633.0,STARLINK-3994,PAYLOAD,2024-04-19 04:54:11,15.08839786,0.0001386,53.2165,124.342,89.1076,271.0075,0.0001066,1.409e-05,0.0,0 STARLINK-3994,1 52633U 22052AM  24110.20430407  .00001409  00000-0  10660-3 0  9998,2 52633  53.2165 124.3420 0001386  89.1076 271.0075 15.08839786107283,6917.881,95.438,540.705,538.787,0.0
52633.0,STARLINK-3994,PAYLOAD,2024-04-19 06:29:34,15.0884308,0.0001413,53.2163,124.0446,92.4959,267.6195,0.00016602,2.355e-05,0.0,0 STARLINK-3994,1 52633U 22052AM  24110.27054278  .00002355  00000-0  16602-3 0  9996,2 52633  53.2163 124.0446 0001413  92.4959 267.6195 15.08843080106920,6917.871,95.437,540.713,538.758,0.0
52633.0,STARLINK-3994,PAYLOAD,2024-04-20 09:31:07,15.08865544,0.0001325,53.2159,118.9917,92.3211,267.7933,0.0005698,8.798e-05,0.0,0 STARLINK-3994,1 52633U 22052AM  24111.39661481  .00008798  00000-0  56980-3 0  9990,2 52633  53.2159 118.9917 0001325  92.3211 267.7933 15.08865544107462,6917.802,95.436,540.584,538.751,0.0
52633.0,STARLINK-3994,PAYLOAD,2024-04-21 04:35:46,15.08824687,0.0002444,53.2165,115.4178,138.4354,221.6824,-0.00033455,-5.607e-05,0.0,0 STARLINK-3994,1 52633U 22052AM  24112.19150614 -.00005607  00000-0 -33455-3 0  9990,2 52633  53.2165 115.4178 0002444 138.4354 221.6824 15.08824687107587,6917.927,95.439,541.483,538.101,0.0
52633.0,STARLINK-3994,PAYLOAD,2024-04-21 09:21:56,15.08819212,0.00015,53.2155,114.5287,95.3239,264.7924,-0.00025135,-4.284e-05,0.0,0 STARLINK-3994,1 52633U 22052AM  24112.39023420 -.00004284  00000-0 -25135-3 0  9992,2 52633  53.2155 114.5287 0001500  95.3239 264.7924 15.08819212107242,6917.944,95.439,540.847,538.771,0.0
52633.0,STARLINK-3994,PAYLOAD,2024-04-22 04:26:34,15.08837447,0.0001383,53.2151,110.9619,103.1324,256.9823,0.00065346,0.00010126,0.0,0 STARLINK-3994,1 52633U 22052AM  24113.18511917  .00010126  00000-0  65346-3 0  9991,2 52633  53.2151 110.9619 0001383 103.1324 256.9823 15.08837447107734,6917.888,95.438,540.71,538.796,0.0
52633.0,STARLINK-3994,PAYLOAD,2024-04-22 09:12:43,15.08853958,0.0001592,53.2153,110.0686,90.5997,269.5178,0.0011683,0.00018361,0.0,0 STARLINK-3994,1 52633U 22052AM  24113.38383830  .00018361  00000-0  11683-2 0  9997,2 52633  53.2153 110.0686 0001592  90.5997 269.5178 15.08853958107398,6917.838,95.437,540.804,538.601,0.0
52633.0,STARLINK-3994,PAYLOAD,2024-04-23 04:17:21,15.0885329,0.0002061,53.2176,106.492,79.8753,280.2471,0.00046693,7.154e-05,0.0,0 STARLINK-3994,1 52633U 22052AM  24114.17871594  .00007154  00000-0  46693-3 0  9992,2 52633  53.2176 106.4920 0002061  79.8753 280.2471 15.08853290107884,6917.84,95.437,541.131,538.279,0.0
52633.0,STARLINK-3994,PAYLOAD,2024-04-23 09:03:30,15.0885476,0.0001659,53.2177,105.5968,101.8843,258.2335,0.00086035,0.00013436,0.0,0 STARLINK-3994,1 52633U 22052AM  24114.37743119  .00013436  00000-0  86035-3 0  9999,2 52633  53.2177 105.5968 0001659 101.8843 258.2335 15.08854760107545,6917.835,95.437,540.848,538.553,0.0
52633.0,STARLINK-3994,PAYLOAD,2024-04-24 05:43:30,15.0884972,0.0001602,53.2185,101.7326,103.6335,256.4835,0.00013334,1.835e-05,0.0,0 STARLINK-3994,1 52633U 22052AM  24115.23854848  .00001835  00000-0  13334-3 0  9999,2 52633  53.2185 101.7326 0001602 103.6335 256.4835 15.08849720108045,6917.851,95.437,540.824,538.607,0.0
52633.0,STARLINK-3994,PAYLOAD,2024-04-25 03:58:54,15.08845105,0.0001621,53.217,97.5788,119.4628,240.6526,0.00012601,1.718e-05,0.0,0 STARLINK-3994,1 52633U 22052AM  24116.16590858  .00001718  00000-0  12601-3 0  9996,2 52633  53.2170  97.5788 0001621 119.4628 240.6526 15.08845105108184,6917.865,95.437,540.851,538.608,0.0
52633.0,STARLINK-3994,PAYLOAD,2024-04-25 05:34:17,15.08847548,0.0001624,53.2173,97.2809,118.7664,241.3492,9.9662e-05,1.299e-05,0.0,0 STARLINK-3994,1 52633U 22052AM  24116.23214743  .00001299  00000-0  99662-4 0  9997,2 52633  53.2173  97.2809 0001624 118.7664 241.3492 15.08847548107826,6917.857,95.437,540.846,538.599,0.0
52633.0,STARLINK-3994,PAYLOAD,2024-04-25 23:03:32,15.08837932,0.000166,53.2181,94.0097,111.0522,249.0648,6.0281e-05,6.71e-06,0.0,0 STARLINK-3994,1 52633U 22052AM  24116.96079278  .00000671  00000-0  60281-4 0  9997,2 52633  53.2181  94.0097 0001660 111.0522 249.0648 15.08837932107934,6917.887,95.438,540.9,538.603,0.0
52633.0,STARLINK-3994,PAYLOAD,2024-04-26 03:49:41,15.08837078,0.0001717,53.218,93.1205,119.1249,240.9916,4.5321e-05,4.33e-06,0.0,0 STARLINK-3994,1 52633U 22052AM  24117.15951304  .00000433  00000-0  45321-4 0  9992,2 52633  53.2180  93.1205 0001717 119.1249 240.9916 15.08837078108336,6917.889,95.438,540.942,538.567,0.0
52633.0,STARLINK-3994,PAYLOAD,2024-04-26 05:25:05,15.08837232,0.0001574,53.2176,92.8218,112.9445,247.1713,3.9828e-05,3.46e-06,0.0,0 STARLINK-3994,1 52633U 22052AM  24117.22575310  .00000346  00000-0  39828-4 0  9997,2 52633  53.2176  92.8218 0001574 112.9445 247.1713 15.08837232107976,6917.889,95.438,540.843,538.665,0.0
52633.0,STARLINK-3994,PAYLOAD,2024-04-26 14:57:23,15.08840501,0.0001563,53.2177,91.0402,114.0794,246.0362,7.1251e-05,8.46e-06,0.0,0 STARLINK-3994,1 52633U 22052AM  24117.62319175  .00000846  00000-0  71251-4 0  9997,2 52633  53.2177  91.0402 0001563 114.0794 246.0362 15.08840501108030,6917.879,95.438,540.825,538.663,0.0
52633.0,STARLINK-3994,PAYLOAD,2024-04-27 05:15:51,15.08849221,0.0001356,53.217,88.3629,109.8328,250.281,0.00013846,1.917e-05,0.0,0 STARLINK-3994,1 52633U 22052AM  24118.21934652  .00001917  00000-0  13846-3 0  9991,2 52633  53.2170  88.3629 0001356 109.8328 250.2810 15.08849221108491,6917.852,95.437,540.655,538.779,0.0
52633.0,STARLINK-3994,PAYLOAD,2024-04-27 06:51:14,15.08855757,0.0001618,53.2163,88.0642,112.2146,247.9018,0.00015231,2.138e-05,0.0,0 STARLINK-3994,1 52633U 22052AM  24118.28558306  .00002138  00000-0  15231-3 0  9992,2 52633  53.2163  88.0642 0001618 112.2146 247.9018 15.08855757108137,6917.832,95.437,540.817,538.578,0.0
52633.0,STARLINK-3994,PAYLOAD,2024-04-27 14:48:10,15.0884286,0.0001521,53.2179,86.5774,88.8285,271.2881,0.00011664,1.569e-05,0.0,0 STARLINK-3994,1 52633U 22052AM  24118.61678926  .00001569  00000-0  11664-3 0  9993,2 52633  53.2179  86.5774 0001521  88.8285 271.2881 15.08842860108553,6917.872,95.437,540.789,538.684,0.0
52633.0,STARLINK-3994,PAYLOAD,2024-04-28 03:31:16,15.08826736,0.0001399,53.2168,84.1998,88.6952,271.4201,-0.00010965,-2.032e-05,0.0,0 STARLINK-3994,1 52633U 22052AM  24119.14672024 -.00002032  00000-0 -10965-3 0  9996,2 52633  53.2168  84.1998 0001399  88.6952 271.4201 15.08826736108636,6917.921,95.438,540.754,538.818,0.0
52633.0,STARLINK-3994,PAYLOAD,2024-04-28 14:38:58,15.08836697,0.0001474,53.2174,82.1185,87.4183,272.6978,3.5357e-05,2.75e-06,0.0,0 STARLINK-3994,1 52633U 22052AM  24119.61039751  .00000275  00000-0  35357-4 0  9990,2 52633  53.2174  82.1185 0001474  87.4183 272.6978 15.08836697108334,6917.89,95.438,540.775,538.736,0.0
52633.0,STARLINK-3994,PAYLOAD,2024-04-29 04:57:26,15.08847742,0.0001468,53.2173,79.44,81.9108,278.205,0.00041513,6.326e-05,0.0,0 STARLINK-3994,1 52633U 22052AM  24120.20655457  .00006326  00000-0  41513-3 0  9997,2 52633  53.2173  79.4400 0001468  81.9108 278.2050 15.08847742108797,6917.857,95.437,540.737,538.706,0.0
52633.0,STARLINK-3994,PAYLOAD,2024-04-29 14:29:45,15.08841291,0.0001517,53.2168,77.6542,79.4574,280.6589,0.00020606,2.993e-05,0.0,0 STARLINK-3994,1 52633U 22052AM  24120.60399746  .00002993  00000-0  20606-3 0  9993,2 52633  53.2168  77.6542 0001517  79.4574 280.6589 15.08841291108485,6917.876,95.437,540.791,538.692,0.0
52633.0,STARLINK-3994,PAYLOAD,2024-04-29 20:51:18,15.08840911,0.0001704,53.2166,76.4696,72.832,287.2859,0.00027892,4.154e-05,0.0,0 STARLINK-3994,1 52633U 22052AM  24120.86895970  .00004154  00000-0  27892-3 0  9996,2 52633  53.2166  76.4696 0001704  72.8320 287.2859 15.08840911108890,6917.878,95.437,540.921,538.564,0.0
52633.0,STARLINK-3994,PAYLOAD,2024-04-30 03:12:50,15.0884233,0.0001645,53.2172,75.2784,77.4133,282.7043,0.00020259,2.938e-05,0.0,0 STARLINK-3994,1 52633U 22052AM  24121.13391923  .00002938  00000-0  20259-3 0  9994,2 52633  53.2172  75.2784 0001645  77.4133 282.7043 15.08842330108565,6917.873,95.437,540.876,538.6,0.0
52633.0,STARLINK-3994,PAYLOAD,2024-04-30 14:20:32,15.08844651,0.0001516,53.2166,73.1968,77.2376,282.8786,0.00023749,3.494e-05,0.0,0 STARLINK-3994,1 52633U 22052AM  24121.59759828  .00003494  00000-0  23749-3 0  9991,2 52633  53.2166  73.1968 0001516  77.2376 282.8786 15.08844651108634,6917.866,95.437,540.78,538.682,0.0
52633.0,STARLINK-3994,PAYLOAD,2024-05-01 03:03:37,15.08851742,0.0001534,53.2172,70.8165,82.8164,277.3002,0.00031254,4.691e-05,0.0,0 STARLINK-3994,1 52633U 22052AM  24122.12751505  .00004691  00000-0  31254-3 0  9995,2 52633  53.2172  70.8165 0001534  82.8164 277.3002 15.08851742109080,6917.844,95.437,540.771,538.648,0.0
52633.0,STARLINK-3994,PAYLOAD,2024-05-01 20:32:51,15.08845578,0.0001428,53.2172,67.5439,88.0254,272.0901,0.00029478,4.407e-05,0.0,0 STARLINK-3994,1 52633U 22052AM  24122.85615573  .00004407  00000-0  29478-3 0  9999,2 52633  53.2172  67.5439 0001428  88.0254 272.0901 15.08845578109199,6917.863,95.437,540.716,538.74,0.0
